ONEWEB-0215             
1 48800U 21045AK  23059.28012097  .00000180  00000+0  44440-3 0  9997
2 48800  87.9087 139.0991 0001041 138.8146 221.3063 13.15547647 85878
ONEWEB-0215             
1 48800U 21045AK  23059.28012097  .00000180  00000+0  44440-3 0  9997
2 48800  87.9087 139.0991 0001041 138.8146 221.3063 13.15547647 86992
ONEWEB-0215             
1 48800U 21045AK  23059.73646559  .00000148  00000+0  35807-3 0  9994
2 48800  87.9087 139.0086 0001066 139.2892 220.8318 13.15547259 85936
ONEWEB-0215             
1 48800U 21045AK  23060.26886677  .00000062  00000+0  13187-3 0  9993
2 48800  87.9087 138.9030 0001105 139.0058 221.1156 13.15547876 86007
ONEWEB-0215             
1 48800U 21045AK  23060.95338318  .00000085  00000+0  19060-3 0  9994
2 48800  87.9087 138.7671 0001152 140.4711 219.6503 13.15547168 87216
ONEWEB-0215             
1 48800U 21045AK  23061.25761238  .00000047  00000+0  90740-4 0  9992
2 48800  87.9086 138.7068 0001164 140.7088 219.4127 13.15547533 86134
ONEWEB-0215             
1 48800U 21045AK  23062.24635823 -.00000087  00000+0 -26498-3 0  9996
2 48800  87.9084 138.5105 0001233 140.6214 219.5006 13.15547408 86261
ONEWEB-0215             
1 48800U 21045AK  23062.24635823 -.00000087  00000+0 -26498-3 0  9996
2 48800  87.9084 138.5105 0001233 140.6214 219.5006 13.15547408 87385
ONEWEB-0215             
1 48800U 21045AK  23062.62664402  .00000038  00000+0  68063-4 0  9992
2 48800  87.9082 138.4351 0001263 140.2844 219.8379 13.15548224 86318
